TIANMU-1 21             
1 58662U 23208C   26168.18245126  .00007330  00000+0  21767-3 0  9992
2 58662  97.4512 287.7976 0005967 323.6786  36.4051 15.35076538137569
TIANMU-1 22             
1 58663U 23208D   26168.13808829  .00006431  00000+0  21692-3 0  9991
2 58663  97.4507 284.3733 0003209   4.5862 355.5408 15.31058121137324
TIANMU-1 15             
1 58700U 24004A   26168.16416010  .00004580  00000+0  17548-3 0  9996
2 58700  97.4665 354.3542 0006710   2.4808 357.6463 15.27023725135772
TIANMU-1 16             
1 58701U 24004B   26168.21893359  .00004257  00000+0  16468-3 0  9999
2 58701  97.4611 353.6458 0005835   7.8518 352.2811 15.26748317135785
TIANMU-1 17             
1 58702U 24004C   26168.20438716  .00004338  00000+0  16777-3 0  9994
2 58702  97.4639 354.1162 0005523  14.5448 345.5949 15.26747420135775
TIANMU-1 18             
1 58703U 24004D   26168.18077420  .00004630  00000+0  17749-3 0  9998
2 58703  97.4657 354.3481 0004052  15.4178 344.7183 15.27005759135772
INSAT-3DS               
1 58990U 24033A   26167.70113455 -.00000158  00000+0  00000+0 0  9994
2 58990   0.0433 112.2519 0001001 322.3943 164.8294  1.00271371 47065
METEOR-M2 4             
1 59051U 24039A   26168.18343336 -.00000002  00000+0  18952-4 0  9993
2 59051  98.7010 127.4815 0007293 160.9601 199.1851 14.22429507119268
GOES 19                 
1 60133U 24119A   26167.59867399 -.00000250  00000+0  00000+0 0  9994
2 60133   0.0076  86.7798 0000387  98.2994 220.1202  1.00271370  6952
MTG-S1                  
1 64723U 25143A   26167.75525036 -.00000034  00000+0  00000+0 0  9998
2 64723   0.6036 338.8844 0000992  11.8800 182.6770  1.00272107  3414
METOP-SGA1              
1 65159U 25172A   26167.15332899  .00000049  00000+0  42000-4 0  9997
2 65159  98.6644 226.8998 0000902  93.8213 266.3067 14.21509720 43644
FENGYUN 3H              
1 65815U 25219A   26168.11152296  .00000038  00000+0  38228-4 0  9991
2 65815  98.6768 108.8821 0001598  76.9295 283.2060 14.19920469 37376
