OBJECT_NAME,OBJECT_ID,EPOCH,MEAN_MOTION,ECCENTRICITY,INCLINATION,RA_OF_ASC_NODE,ARG_OF_PERICENTER,MEAN_ANOMALY,EPHEMERIS_TYPE,CLASSIFICATION_TYPE,NORAD_CAT_ID,ELEMENT_SET_NO,REV_AT_EPOCH,BSTAR,MEAN_MOTION_DOT,MEAN_MOTION_DDOT
TIANMU-1 21,2023-208C,2026-06-17T04:22:43.788864,15.35076538,.0005967,97.4512,287.7976,323.6786,36.4051,0,U,58662,999,13756,.21767E-3,.733E-4,0
TIANMU-1 22,2023-208D,2026-06-17T03:18:50.828256,15.31058121,.0003209,97.4507,284.3733,4.5862,355.5408,0,U,58663,999,13732,.21692E-3,.6431E-4,0
TIANMU-1 15,2024-004A,2026-06-17T03:56:23.432640,15.27023725,.000671,97.4665,354.3542,2.4808,357.6463,0,U,58700,999,13577,.17548E-3,.458E-4,0
TIANMU-1 16,2024-004B,2026-06-17T05:15:15.862176,15.26748317,.0005835,97.4611,353.6458,7.8518,352.2811,0,U,58701,999,13578,.16468E-3,.4257E-4,0
TIANMU-1 17,2024-004C,2026-06-17T04:54:19.050624,15.26747420,.0005523,97.4639,354.1162,14.5448,345.5949,0,U,58702,999,13577,.16777E-3,.4338E-4,0
TIANMU-1 18,2024-004D,2026-06-17T04:20:18.890880,15.27005759,.0004052,97.4657,354.3481,15.4178,344.7183,0,U,58703,999,13577,.17749E-3,.463E-4,0
INSAT-3DS,2024-033A,2026-06-16T16:49:38.025120,1.00271371,.0001001,0.0433,112.2519,322.3943,164.8294,0,U,58990,999,4706,0,-.158E-5,0
METEOR-M2 4,2024-039A,2026-06-17T04:24:08.642304,14.22429507,.0007293,98.7010,127.4815,160.9601,199.1851,0,U,59051,999,11926,.18952E-4,-.2E-7,0
GOES 19,2024-119A,2026-06-16T14:22:05.432736,1.00271370,.0000387,0.0076,86.7798,98.2994,220.1202,0,U,60133,999,695,0,-.25E-5,0
MTG-S1,2025-143A,2026-06-16T18:07:33.631104,1.00272107,.0000992,0.6036,338.8844,11.8800,182.6770,0,U,64723,999,341,0,-.34E-6,0
METOP-SGA1,2025-172A,2026-06-16T03:40:47.624736,14.21509720,.0000902,98.6644,226.8998,93.8213,266.3067,0,U,65159,999,4364,.41999845E-4,.49E-6,0
FENGYUN 3H,2025-219A,2026-06-17T02:40:35.583744,14.19920469,.0001598,98.6768,108.8821,76.9295,283.2060,0,U,65815,999,3737,.38228E-4,.38E-6,0
